[{"OBJECT_NAME":"TIANMU-1 22","OBJECT_ID":"2023-208D","EPOCH":"2026-03-09T22:39:05.738688","MEAN_MOTION":15.29457749,"ECCENTRICITY":0.00031332,"INCLINATION":97.4379,"RA_OF_ASC_NODE":184.9419,"ARG_OF_PERICENTER":351.9312,"MEAN_ANOMALY":8.1877,"EPHEMERIS_TYPE":0,"CLASSIFICATION_TYPE":"U","NORAD_CAT_ID":58663,"ELEMENT_SET_NO":999,"REV_AT_EPOCH":12215,"BSTAR":0.00038239675,"MEAN_MOTION_DOT":0.00010851,"MEAN_MOTION_DDOT":0},{"OBJECT_NAME":"STARLINK-35228","OBJECT_ID":"2025-198AB","EPOCH":"2026-03-09T19:51:10.979424","MEAN_MOTION":15.30196191,"ECCENTRICITY":0.00010626,"INCLINATION":53.1587,"RA_OF_ASC_NODE":270.1762,"ARG_OF_PERICENTER":85.2428,"MEAN_ANOMALY":274.8694,"EPHEMERIS_TYPE":0,"CLASSIFICATION_TYPE":"U","NORAD_CAT_ID":65517,"ELEMENT_SET_NO":999,"REV_AT_EPOCH":2864,"BSTAR":0.00070421646,"MEAN_MOTION_DOT":0.00020553,"MEAN_MOTION_DDOT":0}]
